GLOBALSTAR M094         
1 39074U 13005C   25148.93486121 -.00000077  00000+0  14680-3 0  9992
2 39074  51.9955 240.7333 0000554 165.8979 194.1903 12.62262311569946
GLOBALSTAR M096         
1 39075U 13005D   25148.86891564 -.00000093  00000+0  58641-4 0  9990
2 39075  52.0081 289.4338 0000821 137.4088 222.6843 12.62271469568850
GLOBALSTAR M078         
1 39076U 13005E   25148.92154194 -.00000177  00000+0 -41034-3 0  9990
2 39076  51.9896  13.8081 0001451 112.6796 247.4224 12.62262360567484
GLOBALSTAR M095         
1 39077U 13005F   25148.94792408 -.00000083  00000+0  11566-3 0  9991
2 39077  51.9822  10.9341 0000970 114.8157 245.2811 12.62263207567345
GLOBALSTAR M087         
1 52888U 22064A   25148.74105419 -.00000109  00000+0 -28116-4 0  9999
2 52888  51.9967 153.0018 0000121 116.4360 243.6519 12.62263445142588
